{
  "type": "FeatureCollection",
  "features": [
    {
      "type": "Feature",
      "properties": {
        "norad_id": 34070,
        "name": "COSMOS 2251 DEB",
        "group": "cosmos-2251-debris",
        "lat": -54.340044533054126,
        "lon": 95.22199914537917,
        "alt_km": 640.698714545515,
        "timestamp": "2025-12-11T10:53:16.283515+00:00",
        "meta_object_name": "COSMOS 2251 DEB",
        "meta_object_id": "1993-036KH",
        "meta_epoch": "2025-12-10T15:41:20.087808",
        "meta_mean_motion": 14.76898862,
        "meta_eccentricity": 0.0018801,
        "meta_inclination": 74.0008,
        "meta_ra_of_asc_node": 120.3637,
        "meta_arg_of_pericenter": 236.0277,
        "meta_mean_anomaly": 134.6038,
        "meta_ephemeris_type": 0,
        "meta_classification_type": "U",
        "meta_norad_cat_id": 34070,
        "meta_element_set_no": 999,
        "meta_rev_at_epoch": 88580,
        "meta_bstar": 0.0044396,
        "meta_mean_motion_dot": 0.00031426,
        "meta_mean_motion_ddot": 0,
        "tle_line1": "1 34070U 93036KH  25344.65370472  .00031426  00000+0  44396-2 0  9990",
        "tle_line2": "2 34070  74.0008 120.3637 0018801 236.0277 134.6038 14.76898862885805"
      },
      "geometry": {
        "type": "Point",
        "coordinates": [
          95.22199914537917,
          -54.340044533054126
        ]
      }
    },
    {
      "type": "Feature",
      "properties": {
        "norad_id": 34114,
        "name": "COSMOS 2251 DEB",
        "group": "cosmos-2251-debris",
        "lat": -61.17101159161937,
        "lon": -102.44619714981492,
        "alt_km": 742.4287481234132,
        "timestamp": "2025-12-11T10:53:16.283527+00:00",
        "meta_object_name": "COSMOS 2251 DEB",
        "meta_object_id": "1993-036KK",
        "meta_epoch": "2025-12-10T07:44:12.685056",
        "meta_mean_motion": 14.56324745,
        "meta_eccentricity": 0.004736,
        "meta_inclination": 74.0584,
        "meta_ra_of_asc_node": 48.4107,
        "meta_arg_of_pericenter": 44.1143,
        "meta_mean_anomaly": 33.0003,
        "meta_ephemeris_type": 0,
        "meta_classification_type": "U",
        "meta_norad_cat_id": 34114,
        "meta_element_set_no": 999,
        "meta_rev_at_epoch": 87766,
        "meta_bstar": 0.0025029,
        "meta_mean_motion_dot": 0.0001125,
        "meta_mean_motion_ddot": 0,
        "tle_line1": "1 34114U 93036KK  25344.32236904  .00011250  00000+0  25029-2 0  9999",
        "tle_line2": "2 34114  74.0584  48.4107 0047360  44.1143  33.0003 14.56324745877668"
      },
      "geometry": {
        "type": "Point",
        "coordinates": [
          -102.44619714981492,
          -61.17101159161937
        ]
      }
    },
    {
      "type": "Feature",
      "properties": {
        "norad_id": 34115,
        "name": "COSMOS 2251 DEB",
        "group": "cosmos-2251-debris",
        "lat": -65.98035847010564,
        "lon": 104.54044468340838,
        "alt_km": 657.8297388213387,
        "timestamp": "2025-12-11T10:53:16.283538+00:00",
        "meta_object_name": "COSMOS 2251 DEB",
        "meta_object_id": "1993-036KL",
        "meta_epoch": "2025-12-11T00:01:01.472736",
        "meta_mean_motion": 14.79442076,
        "meta_eccentricity": 0.0028436,
        "meta_inclination": 74.006,
        "meta_ra_of_asc_node": 245.3704,
        "meta_arg_of_pericenter": 69.4514,
        "meta_mean_anomaly": 290.9708,
        "meta_ephemeris_type": 0,
        "meta_classification_type": "U",
        "meta_norad_cat_id": 34115,
        "meta_element_set_no": 999,
        "meta_rev_at_epoch": 89386,
        "meta_bstar": 0.0016194,
        "meta_mean_motion_dot": 0.00012161,
        "meta_mean_motion_ddot": 0,
        "tle_line1": "1 34115U 93036KL  25345.00071149  .00012161  00000+0  16194-2 0  9999",
        "tle_line2": "2 34115  74.0060 245.3704 0028436  69.4514 290.9708 14.79442076893863"
      },
      "geometry": {
        "type": "Point",
        "coordinates": [
          104.54044468340838,
          -65.98035847010564
        ]
      }
    },
    {
      "type": "Feature",
      "properties": {
        "norad_id": 34116,
        "name": "COSMOS 2251 DEB",
        "group": "cosmos-2251-debris",
        "lat": -21.298550449321525,
        "lon": 178.79688991259022,
        "alt_km": 718.9624651881777,
        "timestamp": "2025-12-11T10:53:16.283549+00:00",
        "meta_object_name": "COSMOS 2251 DEB",
        "meta_object_id": "1993-036KM",
        "meta_epoch": "2025-12-11T00:06:48.806784",
        "meta_mean_motion": 14.52957613,
        "meta_eccentricity": 0.0012069,
        "meta_inclination": 74.0401,
        "meta_ra_of_asc_node": 186.049,
        "meta_arg_of_pericenter": 262.1153,
        "meta_mean_anomaly": 248.4304,
        "meta_ephemeris_type": 0,
        "meta_classification_type": "U",
        "meta_norad_cat_id": 34116,
        "meta_element_set_no": 999,
        "meta_rev_at_epoch": 88461,
        "meta_bstar": 0.00098254,
        "meta_mean_motion_dot": 4.029e-05,
        "meta_mean_motion_ddot": 0,
        "tle_line1": "1 34116U 93036KM  25345.00473156  .00004029  00000+0  98254-3 0  9996",
        "tle_line2": "2 34116  74.0401 186.0490 0012069 262.1153 248.4304 14.52957613884614"
      },
      "geometry": {
        "type": "Point",
        "coordinates": [
          178.79688991259022,
          -21.298550449321525
        ]
      }
    },
    {
      "type": "Feature",
      "properties": {
        "norad_id": 34117,
        "name": "COSMOS 2251 DEB",
        "group": "cosmos-2251-debris",
        "lat": -43.145959705798404,
        "lon": -178.23649631010517,
        "alt_km": 801.8065126830661,
        "timestamp": "2025-12-11T10:53:16.283559+00:00",
        "meta_object_name": "COSMOS 2251 DEB",
        "meta_object_id": "1993-036KN",
        "meta_epoch": "2025-12-11T01:30:42.846624",
        "meta_mean_motion": 14.39999701,
        "meta_eccentricity": 0.0054484,
        "meta_inclination": 74.0405,
        "meta_ra_of_asc_node": 346.9265,
        "meta_arg_of_pericenter": 63.804,
        "meta_mean_anomaly": 296.8702,
        "meta_ephemeris_type": 0,
        "meta_classification_type": "U",
        "meta_norad_cat_id": 34117,
        "meta_element_set_no": 999,
        "meta_rev_at_epoch": 88099,
        "meta_bstar": 0.00095177,
        "meta_mean_motion_dot": 3.026e-05,
        "meta_mean_motion_ddot": 0,
        "tle_line1": "1 34117U 93036KN  25345.06299591  .00003026  00000+0  95177-3 0  9999",
        "tle_line2": "2 34117  74.0405 346.9265 0054484  63.8040 296.8702 14.39999701880999"
      },
      "geometry": {
        "type": "Point",
        "coordinates": [
          -178.23649631010517,
          -43.145959705798404
        ]
      }
    },
    {
      "type": "Feature",
      "properties": {
        "norad_id": 34118,
        "name": "COSMOS 2251 DEB",
        "group": "cosmos-2251-debris",
        "lat": 43.78734850961348,
        "lon": -92.07686718393663,
        "alt_km": 548.3135733100225,
        "timestamp": "2025-12-11T10:53:16.283570+00:00",
        "meta_object_name": "COSMOS 2251 DEB",
        "meta_object_id": "1993-036KP",
        "meta_epoch": "2025-12-11T04:57:26.517888",
        "meta_mean_motion": 14.93846204,
        "meta_eccentricity": 0.0059802,
        "meta_inclination": 73.9524,
        "meta_ra_of_asc_node": 252.4068,
        "meta_arg_of_pericenter": 83.167,
        "meta_mean_anomaly": 75.0428,
        "meta_ephemeris_type": 0,
        "meta_classification_type": "U",
        "meta_norad_cat_id": 34118,
        "meta_element_set_no": 999,
        "meta_rev_at_epoch": 89153,
        "meta_bstar": 0.0029441,
        "meta_mean_motion_dot": 0.000325,
        "meta_mean_motion_ddot": 0,
        "tle_line1": "1 34118U 93036KP  25345.20655692  .00032500  00000+0  29441-2 0  9993",
        "tle_line2": "2 34118  73.9524 252.4068 0059802  83.1670  75.0428 14.93846204891538"
      },
      "geometry": {
        "type": "Point",
        "coordinates": [
          -92.07686718393663,
          43.78734850961348
        ]
      }
    },
    {
      "type": "Feature",
      "properties": {
        "norad_id": 34120,
        "name": "COSMOS 2251 DEB",
        "group": "cosmos-2251-debris",
        "lat": 2.8145132755305453,
        "lon": 37.639792210114415,
        "alt_km": 985.1842460006028,
        "timestamp": "2025-12-11T10:53:16.283581+00:00",
        "meta_object_name": "COSMOS 2251 DEB",
        "meta_object_id": "1993-036KR",
        "meta_epoch": "2025-12-11T02:12:35.457120",
        "meta_mean_motion": 13.98680546,
        "meta_eccentricity": 0.0181886,
        "meta_inclination": 73.9914,
        "meta_ra_of_asc_node": 219.0746,
        "meta_arg_of_pericenter": 47.1262,
        "meta_mean_anomaly": 108.276,
        "meta_ephemeris_type": 0,
        "meta_classification_type": "U",
        "meta_norad_cat_id": 34120,
        "meta_element_set_no": 999,
        "meta_rev_at_epoch": 85957,
        "meta_bstar": 0.00048335,
        "meta_mean_motion_dot": 7.77e-06,
        "meta_mean_motion_ddot": 0,
        "tle_line1": "1 34120U 93036KR  25345.09207705  .00000777  00000+0  48335-3 0  9996",
        "tle_line2": "2 34120  73.9914 219.0746 0181886  47.1262 108.2760 13.98680546859576"
      },
      "geometry": {
        "type": "Point",
        "coordinates": [
          37.639792210114415,
          2.8145132755305453
        ]
      }
    }
  ]
}